#cP2020  8 17  0  0  0.00000000      96 ORBIT IGb14 HLM  IGS
## 2119  86400.00000000   900.00000000 59078 0.0000000000000
+   31   G01G02G03G04G05G06G07G08G09G10G11G12G13G15G16G17G18
+        G19G20G21G22G23G24G25G26G27G28G29G30G31G32  0  0  0
+          0  0  0  0  0  0  0  0  0  0  0  0  0  0  0  0  0
+          0  0  0  0  0  0  0  0  0  0  0  0  0  0  0  0  0
+          0  0  0  0  0  0  0  0  0  0  0  0  0  0  0  0  0
++         2  2  2  2  2  2  2  2  2  2  2  2  2  2  2  2  2
++         2  2  2  2  0  2  2  2  3  2  2  2  2  2  0  0  0
++         0  0  0  0  0  0  0  0  0  0  0  0  0  0  0  0  0
++         0  0  0  0  0  0  0  0  0  0  0  0  0  0  0  0  0
++         0  0  0  0  0  0  0  0  0  0  0  0  0  0  0  0  0
%c G  cc GPS ccc cccc cccc cccc cccc ccccc ccccc ccccc ccccc
%c cc cc ccc ccc cccc cccc cccc cccc ccccc ccccc ccccc ccccc
%f  1.2500000  1.025000000  0.00000000000  0.000000000000000
%f  0.0000000  0.000000000  0.00000000000  0.000000000000000
%i    0    0    0    0      0      0      0      0         0
%i    0    0    0    0      0      0      0      0         0
/* RAPID ORBIT COMBINATION FROM WEIGHTED AVERAGE OF:        
/* cod emr esa gfz jpl ngs sio usn whu                      
/* REFERENCED TO IGS TIME (IGST) AND TO WEIGHTED MEAN POLE: 
/* PCV:IGS14_2118 OL/AL:FES2004  NONE     Y  ORB:CMB CLK:CMB
*  2020  8 17  1 30  0.00000000
PG01 -16724.981479  -5197.697567  19834.480669     34.140195  5  7  3 101       
PG02  14237.688089  22114.797606  -3192.218997   -503.240130  7  5  4  91       
PG03 -19229.633145   6367.428413  17050.287204   -272.173987  8  7  6  79       
PG04 -26057.636652     39.863200  -5228.674962   -125.346640 10  7  7  91       
PG05   9082.630951  13373.128955 -21192.545365    -18.997453  6  6  4 104       
PG06   4869.249721  24744.902691   8316.358042   -316.336511  4  3  3 108       
PG07  -9987.710435  13298.518608 -20275.549968   -351.847329  6  4  3 118       
PG08 -25223.236478  -6401.444012  -5957.665407    -44.718362  8  4  7 140       
PG09 -19900.637540   9011.325311 -15169.797618   -271.535434  7  6  3  81       
PG10  10131.718021 -23151.271776   7840.461826   -429.647992  5  2  5  73       
PG11 -22725.884577  -9698.793046   8792.088321   -190.659247  9  6  4 136       
PG12  19170.674319  -4349.872121  17554.955872     79.606720  5  4  6  87       
PG13  19564.584003  13349.944925 -12246.998617     36.494928  4  2  5 103       
PG15  25905.747046   4162.834078  -5594.766769   -210.117229  9  4  6 101       
PG16  -9928.607079 -11269.493355 -22097.334629   -196.681587  6  6  5  58       
PG17  -3384.094819  14538.005691  22394.054182    312.144700  5  6  7  94       
PG18   9466.928247 -14124.519906 -20407.941684    271.385685  6  6  7  98       
PG19   5028.092735  15299.207553  20837.286653   -117.476765  6  7  5  68       
PG20  15348.491516 -20997.664189  -4793.610649    527.015825  9  7  4 114       
PG21 -10658.266864 -24282.416928  -2669.708390     36.503607  8  4  7  80       
PG22 -16952.447111  -1464.588884  20566.347986   -763.477731  6  7  6  89       
PG23  16084.054883 -21062.759557  -1739.678570 999999.999999
PG24  18413.718305   7015.740008  17772.115860    -17.248469  6  5    106       
PG25  19347.426741 -14967.766123   9784.301580     36.373098  7  5  7  70       
PG26    409.769177 -21151.303759 -15951.354542    262.603075  5  6  6 103       
PG27 -18088.006235 -12354.696836 -15401.297484   -372.943063  8  8  7  94       
PG28 -10711.007833  22440.688655  10121.735152    688.765940  6  3  7 105       
PG29  22875.536780  -4534.759035 -12798.421395   -174.365332  8  7  6  84       
PG30  -2696.510554  21886.860800 -14592.733534   -283.692510  6  6  5  94       
PG31  -5501.632201 -24956.798447   6245.851084    -62.668371  4  4  3  98       
PG32   1724.600162 -15239.380067  21770.744413    333.644782  5  3  3  84       
*  2020  8 17  1 45  0.00000000
PG01 -17596.019802  -7241.850973  18435.340744     34.141894  5  7  3  92       
PG02  14148.345836  22479.381344   -349.773737   -503.245327  7  5  4  72       
PG03 -18187.007661   4584.336106  18690.359277   -272.183902  7  7  6  72       
PG04 -26466.913136   -255.967674  -2420.559220   -125.350628 10  7  7  70       
PG05   7749.464415  15314.589806 -20369.358499    -18.998221  6  6  5  99       
PG06   4230.718478  23839.307026  10922.111468   -316.340256  4  4  3  88       
PG07 -11112.120862  11129.385162 -21016.857731   -351.855018  5  4  1 117       
PG08 -24382.623504  -6551.834566  -8651.697678    -44.719873  7  4  7 125       
PG09 -21491.732040   8710.288020 -13015.869659   -271.540855  7  6  3  42       
PG10  10746.115665 -23621.631956   5088.102530   -429.657190  6  1  5  64       
PG11 -23226.559003 -10577.810291   6201.832591   -190.649882  8  6  4 140       
PG12  17940.840326  -2590.012933  19125.423476     79.602096  5  4  5  95       
PG13  18051.654421  13219.897739 -14514.071329     36.497936  2  2  4 102       
PG15  25168.327481   4482.142103  -8215.003099   -210.114910  9  4  6  99       
PG16  -8333.998564 -13140.703161 -21675.992470   -196.685820  6  5  5  45       
PG17  -5808.283958  14198.088024  22103.394895    312.149773  6  6  7  81       
PG18  10516.568228 -11986.858608 -21248.229648    271.393014  7  6  8  95       
PG19   2577.311277  14909.532013  21540.041092   -117.472174  6  7  5  67       
PG20  15332.290348 -20222.203899  -7491.295918    527.015778  9  7  5 103       
PG21 -10167.876550 -23936.297799  -5443.121427     36.507385  8  4  7  92       
PG22 -15870.130478  -3563.038525  21183.867404   -763.474574  6  7  7  80       
PG23  16100.757945 -20626.221389  -4567.344003 999999.999999
PG24  19218.571676   8819.815476  16088.091190    -17.248178  5  4    102       
PG25  18806.903453 -13761.167943  12262.324023     36.377449  6  5  6  78       
PG26   1515.851811 -22481.997953 -13910.920603    262.609033  5  5  5 115       
PG27 -16251.727237 -12337.017660 -17329.273963   -372.951436  9  8  6  85       
PG28 -11435.001545  23047.245450   7480.010528    688.762356  6  3  6  90       
PG29  24152.249274  -4195.172202 -10324.929545   -174.372546  8  7  5  77       
PG30  -3640.787362  20333.645668 -16521.269194   -283.699185  6  6  4  97       
PG31  -4878.710122 -24265.833167   8936.454896    -62.670655  4  3  3 103       
PG32   4179.768415 -15049.880285  21554.462691    333.649673  5  4  3  91       
*  2020  8 17  2  0  0.00000000
PG01 -18492.176019  -9075.337028  16716.567401     34.143620  4  7  3 101       
PG02  13906.366951  22575.230961   2498.753848   -503.250086  7  6  3  84       
PG03 -17153.674270   2604.814316  20005.836043   -272.193812  6  7  6  86       
PG04 -26571.347232   -514.732129    429.135752   -125.354586 10  7  8  80       
PG05   6570.469462  17225.438139 -19198.671286    -18.998986  6  6  5 107       
PG06   3404.522525  22721.801367  13339.920867   -316.344002  4  5  3  99       
PG07 -12370.802305   8966.126695 -21383.593307   -351.862435  4  5    118       
PG08 -23255.584621  -6748.444925 -11198.953299    -44.721241  7  5  7 125       
PG09 -22840.553030   8490.411970 -10638.759387   -271.546285  8  6  3  80       
PG10  11173.230735 -23849.685977   2247.034719   -429.666378  7  3  5  82       
PG11 -23515.996587 -11261.940038   3501.163370   -190.640047  8  6  4 133       
PG12  16715.884641   -634.270046  20358.898486     79.597758  5  4  5 105       
PG13  16295.136020  13136.610049 -16534.430120     36.501324  3  3  4 107       
PG15  24165.267616   4860.379647 -10698.413336   -210.112410  8  4  5  99       
PG16  -6881.826599 -15045.383731 -20886.798370   -196.690454  5  5  5  69       
PG17  -8196.527567  14000.214589  21446.815506    312.154752  6  6  7  73       
PG18  11711.870387  -9841.947378 -21723.160093    271.400303  7  7  8 114       
PG19     49.178246  14647.393628  21862.094741   -117.467621  5  7  5  73       
PG20  15234.714256 -19173.821568 -10058.596489    527.016113  9  7  5 111       
PG21  -9485.512835 -23358.190391  -8122.879634     36.511257  8  4  7  90       
PG22 -14869.051748  -5753.381988  21442.879489   -763.471526  6  7  6  93       
PG23  15984.662753 -19916.512491  -7316.419025 999999.999999
PG24  19998.153752  10405.935016  14127.493429    -17.246780  5  4     98       
PG25  18190.488404 -12294.449456  14523.808880     36.381769  5  5  6  99       
PG26   2437.751763 -23651.842336 -11628.951971    262.615057  5  4  6 107       
PG27 -14216.117887 -12419.267529 -18965.967100   -372.959806  9  7  5  66       
PG28 -11950.024674  23447.492952   4712.918612    688.758826  6  4  6  93       
PG29  25156.850706  -3951.603870  -7674.528229   -174.380104  7  7  6  89       
PG30  -4750.085967  18648.185253 -18161.977559   -283.705871  6  6  4  93       
PG31  -4084.235723 -23342.508006  11468.937711    -62.672725  3  3  3 108       
PG32   6597.903616 -14987.850453  20969.740849    333.654578  5  4  3  88       
EOF
